{
  "type": "FeatureCollection",
  "features": [
    {
      "type": "Feature",
      "properties": {
        "norad_id": 37867,
        "name": "COSMOS 2476 (744)",
        "group": "glo-ops",
        "lat": -50.81589828789736,
        "lon": 44.255516689796444,
        "alt_km": 19109.870131409516,
        "timestamp": "2025-12-23T20:42:37.336581+00:00",
        "meta_object_name": "COSMOS 2476 (744)",
        "meta_object_id": "2011-064A",
        "meta_epoch": "2025-12-23T12:51:54.046080",
        "meta_mean_motion": 2.13103692,
        "meta_eccentricity": 0.002455,
        "meta_inclination": 65.1675,
        "meta_ra_of_asc_node": 78.8064,
        "meta_arg_of_pericenter": 235.5255,
        "meta_mean_anomaly": 174.828,
        "meta_ephemeris_type": 0,
        "meta_classification_type": "U",
        "meta_norad_cat_id": 37867,
        "meta_element_set_no": 999,
        "meta_rev_at_epoch": 11002,
        "meta_bstar": 0,
        "meta_mean_motion_dot": 1e-08,
        "meta_mean_motion_ddot": 0,
        "tle_line1": "1 37867U 11064A   25357.53604220  .00000001  00000+0  00000+0 0  9996",
        "tle_line2": "2 37867  65.1675  78.8064 0024550 235.5255 174.8280  2.13103692110020"
      },
      "geometry": {
        "type": "Point",
        "coordinates": [
          44.255516689796444,
          -50.81589828789736
        ]
      }
    },
    {
      "type": "Feature",
      "properties": {
        "norad_id": 37868,
        "name": "COSMOS 2477 (745)",
        "group": "glo-ops",
        "lat": 50.485890870458256,
        "lon": -135.19528785508885,
        "alt_km": 19145.99528607361,
        "timestamp": "2025-12-23T20:42:37.336593+00:00",
        "meta_object_name": "COSMOS 2477 (745)",
        "meta_object_id": "2011-064B",
        "meta_epoch": "2025-12-23T05:19:57.056160",
        "meta_mean_motion": 2.13103036,
        "meta_eccentricity": 0.00215459,
        "meta_inclination": 65.1742,
        "meta_ra_of_asc_node": 78.8944,
        "meta_arg_of_pericenter": 235.4149,
        "meta_mean_anomaly": 115.0574,
        "meta_ephemeris_type": 0,
        "meta_classification_type": "U",
        "meta_norad_cat_id": 37868,
        "meta_element_set_no": 999,
        "meta_rev_at_epoch": 11000,
        "meta_bstar": 0,
        "meta_mean_motion_dot": 0,
        "meta_mean_motion_ddot": 0,
        "tle_line1": "1 37868U 11064B   25357.22218815  .00000000  00000+0  00000+0 0  9993",
        "tle_line2": "2 37868  65.1742  78.8944 0021545 235.4149 115.0574  2.13103036110008"
      },
      "geometry": {
        "type": "Point",
        "coordinates": [
          -135.19528785508885,
          50.485890870458256
        ]
      }
    },
    {
      "type": "Feature",
      "properties": {
        "norad_id": 37869,
        "name": "COSMOS 2475 (743)",
        "group": "glo-ops",
        "lat": 62.5561703809605,
        "lon": 141.73794829695933,
        "alt_km": 19190.44404059985,
        "timestamp": "2025-12-23T20:42:37.336604+00:00",
        "meta_object_name": "COSMOS 2475 (743)",
        "meta_object_id": "2011-064C",
        "meta_epoch": "2025-12-23T06:48:57.377088",
        "meta_mean_motion": 2.13101654,
        "meta_eccentricity": 0.00266814,
        "meta_inclination": 65.1811,
        "meta_ra_of_asc_node": 78.9126,
        "meta_arg_of_pericenter": 249.1292,
        "meta_mean_anomaly": 104.6561,
        "meta_ephemeris_type": 0,
        "meta_classification_type": "U",
        "meta_norad_cat_id": 37869,
        "meta_element_set_no": 999,
        "meta_rev_at_epoch": 11001,
        "meta_bstar": 0,
        "meta_mean_motion_dot": 1e-08,
        "meta_mean_motion_ddot": 0,
        "tle_line1": "1 37869U 11064C   25357.28399742  .00000001  00000+0  00000+0 0  9990",
        "tle_line2": "2 37869  65.1811  78.9126 0026681 249.1292 104.6561  2.13101654110011"
      },
      "geometry": {
        "type": "Point",
        "coordinates": [
          141.73794829695933,
          62.5561703809605
        ]
      }
    },
    {
      "type": "Feature",
      "properties": {
        "norad_id": 39155,
        "name": "COSMOS 2485 (747)",
        "group": "glo-ops",
        "lat": -9.413719573653786,
        "lon": 75.14127186465967,
        "alt_km": 19162.71127665649,
        "timestamp": "2025-12-23T20:42:37.336616+00:00",
        "meta_object_name": "COSMOS 2485 (747)",
        "meta_object_id": "2013-019A",
        "meta_epoch": "2025-12-22T11:14:56.157792",
        "meta_mean_motion": 2.13103251,
        "meta_eccentricity": 0.00249447,
        "meta_inclination": 65.3184,
        "meta_ra_of_asc_node": 79.5401,
        "meta_arg_of_pericenter": 230.2875,
        "meta_mean_anomaly": 129.5355,
        "meta_ephemeris_type": 0,
        "meta_classification_type": "U",
        "meta_norad_cat_id": 39155,
        "meta_element_set_no": 999,
        "meta_rev_at_epoch": 9851,
        "meta_bstar": 0,
        "meta_mean_motion_dot": -2e-08,
        "meta_mean_motion_ddot": 0,
        "tle_line1": "1 39155U 13019A   25356.46870553 -.00000002  00000+0  00000+0 0  9997",
        "tle_line2": "2 39155  65.3184  79.5401 0024944 230.2875 129.5355  2.13103251 98519"
      },
      "geometry": {
        "type": "Point",
        "coordinates": [
          75.14127186465967,
          -9.413719573653786
        ]
      }
    },
    {
      "type": "Feature",
      "properties": {
        "norad_id": 39620,
        "name": "COSMOS 2492 (754)",
        "group": "glo-ops",
        "lat": 19.377882081362905,
        "lon": -30.85748431737095,
        "alt_km": 19114.17861512925,
        "timestamp": "2025-12-23T20:42:37.336627+00:00",
        "meta_object_name": "COSMOS 2492 (754)",
        "meta_object_id": "2014-012A",
        "meta_epoch": "2025-12-21T22:59:34.433088",
        "meta_mean_motion": 2.13103396,
        "meta_eccentricity": 0.00142426,
        "meta_inclination": 65.4026,
        "meta_ra_of_asc_node": 319.9579,
        "meta_arg_of_pericenter": 313.3292,
        "meta_mean_anomaly": 46.5466,
        "meta_ephemeris_type": 0,
        "meta_classification_type": "U",
        "meta_norad_cat_id": 39620,
        "meta_element_set_no": 999,
        "meta_rev_at_epoch": 9146,
        "meta_bstar": 0,
        "meta_mean_motion_dot": -4.2e-07,
        "meta_mean_motion_ddot": 0,
        "tle_line1": "1 39620U 14012A   25355.95803742 -.00000042  00000+0  00000+0 0  9991",
        "tle_line2": "2 39620  65.4026 319.9579 0014242 313.3292  46.5466  2.13103396 91463"
      },
      "geometry": {
        "type": "Point",
        "coordinates": [
          -30.85748431737095,
          19.377882081362905
        ]
      }
    },
    {
      "type": "Feature",
      "properties": {
        "norad_id": 40001,
        "name": "COSMOS 2500 (755)",
        "group": "glo-ops",
        "lat": -58.286550538808896,
        "lon": -172.37383366582344,
        "alt_km": 19118.81244368481,
        "timestamp": "2025-12-23T20:42:37.336638+00:00",
        "meta_object_name": "COSMOS 2500 (755)",
        "meta_object_id": "2014-032A",
        "meta_epoch": "2025-12-21T04:35:55.026240",
        "meta_mean_motion": 2.13106227,
        "meta_eccentricity": 0.00077299,
        "meta_inclination": 65.3386,
        "meta_ra_of_asc_node": 319.7453,
        "meta_arg_of_pericenter": 219.3736,
        "meta_mean_anomaly": 140.5635,
        "meta_ephemeris_type": 0,
        "meta_classification_type": "U",
        "meta_norad_cat_id": 40001,
        "meta_element_set_no": 999,
        "meta_rev_at_epoch": 8966,
        "meta_bstar": 0,
        "meta_mean_motion_dot": -4.7e-07,
        "meta_mean_motion_ddot": 0,
        "tle_line1": "1 40001U 14032A   25355.19160910 -.00000047  00000+0  00000+0 0  9992",
        "tle_line2": "2 40001  65.3386 319.7453 0007729 219.3736 140.5635  2.13106227 89663"
      },
      "geometry": {
        "type": "Point",
        "coordinates": [
          -172.37383366582344,
          -58.286550538808896
        ]
      }
    },
    {
      "type": "Feature",
      "properties": {
        "norad_id": 40315,
        "name": "COSMOS 2501 (702K)",
        "group": "glo-ops",
        "lat": 43.18457488306585,
        "lon": -135.77046591773987,
        "alt_km": 19171.17969218157,
        "timestamp": "2025-12-23T20:42:37.336650+00:00",
        "meta_object_name": "COSMOS 2501 (702K)",
        "meta_object_id": "2014-075A",
        "meta_epoch": "2025-12-19T02:31:27.452640",
        "meta_mean_motion": 2.13101513,
        "meta_eccentricity": 0.0020099,
        "meta_inclination": 63.6146,
        "meta_ra_of_asc_node": 196.6046,
        "meta_arg_of_pericenter": 204.1838,
        "meta_mean_anomaly": 155.7988,
        "meta_ephemeris_type": 0,
        "meta_classification_type": "U",
        "meta_norad_cat_id": 40315,
        "meta_element_set_no": 999,
        "meta_rev_at_epoch": 8601,
        "meta_bstar": 0,
        "meta_mean_motion_dot": 1.06e-06,
        "meta_mean_motion_ddot": 0,
        "tle_line1": "1 40315U 14075A   25353.10517885  .00000106  00000+0  00000+0 0  9998",
        "tle_line2": "2 40315  63.6146 196.6046 0020099 204.1838 155.7988  2.13101513 86014"
      },
      "geometry": {
        "type": "Point",
        "coordinates": [
          -135.77046591773987,
          43.18457488306585
        ]
      }
    }
  ]
}